NORAD_CAT_ID,OBJECT_NAME,OBJECT_TYPE,EPOCH,MEAN_MOTION,ECCENTRICITY,INCLINATION,RA_OF_ASC_NODE,ARG_OF_PERICENTER,MEAN_ANOMALY,BSTAR,MEAN_MOTION_DOT,MEAN_MOTION_DDOT,TLE_LINE0,TLE_LINE1,TLE_LINE2,SEMIMAJOR_AXIS,PERIOD,APOGEE,PERIGEE,DECAYED
53802.0,STARLINK-4726,PAYLOAD,2024-05-19 20:02:46,15.08849416,0.0001003,53.2181,341.6987,80.7202,279.3903,0.00027349,4.069e-05,0.0,0 STARLINK-4726,1 53802U 22111AF  24140.83525670  .00004069  00000-0  27349-3 0  9999,2 53802  53.2181 341.6987 0001003  80.7202 279.3903 15.08849416 93541,6917.852,95.437,540.41,539.023,0.0
53802.0,STARLINK-4726,PAYLOAD,2024-05-20 13:32:01,15.08842938,0.0001157,53.2178,338.4248,88.9409,271.1716,0.00010353,1.36e-05,0.0,0 STARLINK-4726,1 53802U 22111AF  24141.56390048  .00001360  00000-0  10353-3 0  9997,2 53802  53.2178 338.4248 0001157  88.9409 271.1716 15.08842938 93656,6917.871,95.437,540.537,538.936,0.0
53802.0,STARLINK-4726,PAYLOAD,2024-05-20 18:18:10,15.08838972,0.0001151,53.218,337.536,97.8484,262.2639,2.1288e-05,5.1e-07,0.0,0 STARLINK-4726,1 53802U 22111AF  24141.76262155  .00000051  00000-0  21288-4 0  9992,2 53802  53.2180 337.5360 0001151  97.8484 262.2639 15.08838972 94491,6917.884,95.438,540.545,538.952,0.0
53802.0,STARLINK-4726,PAYLOAD,2024-05-21 19:44:21,15.08836428,0.0001199,53.2185,332.778,98.1949,261.9179,5.0585e-05,5.17e-06,0.0,0 STARLINK-4726,1 53802U 22111AF  24142.82246536  .00000517  00000-0  50585-4 0  9994,2 53802  53.2185 332.7780 0001199  98.1949 261.9179 15.08836428 93848,6917.891,95.438,540.586,538.927,0.0
53802.0,STARLINK-4726,PAYLOAD,2024-05-21 22:55:07,15.08837639,0.0001175,53.2184,332.1813,78.65,281.4624,6.5761e-05,7.59e-06,0.0,0 STARLINK-4726,1 53802U 22111AF  24142.95494568  .00000759  00000-0  65761-4 0  9998,2 53802  53.2184 332.1813 0001175  78.6500 281.4624 15.08837639 94677,6917.888,95.438,540.565,538.94,0.0
53802.0,STARLINK-4726,PAYLOAD,2024-05-22 21:10:31,15.08839328,0.0001224,53.2185,328.0182,89.5741,270.5392,0.00021942,3.206e-05,0.0,0 STARLINK-4726,1 53802U 22111AF  24143.88230728  .00003206  00000-0  21942-3 0  9999,2 53802  53.2185 328.0182 0001224  89.5741 270.5392 15.08839328 94009,6917.882,95.438,540.594,538.901,0.0
53802.0,STARLINK-4726,PAYLOAD,2024-05-23 21:01:18,15.08841304,0.0001158,53.2182,323.5586,103.2418,256.8704,8.0076e-05,9.87e-06,0.0,0 STARLINK-4726,1 53802U 22111AF  24144.87590622  .00000987  00000-0  80076-4 0  9998,2 53802  53.2182 323.5586 0001158 103.2418 256.8704 15.08841304 94961,6917.876,95.437,540.542,538.94,0.0
53802.0,STARLINK-4726,PAYLOAD,2024-05-24 19:16:42,15.08838863,0.0001243,53.2179,319.3931,91.1471,268.9664,8.5242e-05,1.069e-05,0.0,0 STARLINK-4726,1 53802U 22111AF  24145.80327204  .00001069  00000-0  85242-4 0  9998,2 53802  53.2179 319.3931 0001243  91.1471 268.9664 15.08838863 94294,6917.884,95.438,540.609,538.889,0.0
53802.0,STARLINK-4726,PAYLOAD,2024-05-25 11:10:34,15.08839752,0.000123,53.2171,316.4237,75.504,284.6088,0.00011064,1.473e-05,0.0,0 STARLINK-4726,1 53802U 22111AF  24146.46567183  .00001473  00000-0  11064-3 0  9992,2 53802  53.2171 316.4237 0001230  75.5040 284.6088 15.08839752 95202,6917.881,95.438,540.597,538.895,0.0
53802.0,STARLINK-4726,PAYLOAD,2024-05-26 04:39:48,15.08839467,0.0001175,53.2191,313.1513,106.2724,253.8397,9.1509e-05,1.169e-05,0.0,0 STARLINK-4726,1 53802U 22111AF  24147.19431237  .00001169  00000-0  91509-4 0  9998,2 53802  53.2191 313.1513 0001175 106.2724 253.8397 15.08839467 94500,6917.882,95.438,540.56,538.934,0.0
53802.0,STARLINK-4726,PAYLOAD,2024-05-26 11:01:21,15.0883998,0.0001059,53.2184,311.9668,75.6682,284.4428,6.4347e-05,7.36e-06,0.0,0 STARLINK-4726,1 53802U 22111AF  24147.45927511  .00000736  00000-0  64347-4 0  9991,2 53802  53.2184 311.9668 0001059  75.6682 284.4428 15.08839980 95351,6917.88,95.438,540.478,539.013,0.0
53802.0,STARLINK-4726,PAYLOAD,2024-05-26 20:33:39,15.0884681,0.0001163,53.218,310.1793,87.2571,272.8554,0.00011663,1.569e-05,0.0,0 STARLINK-4726,1 53802U 22111AF  24147.85670858  .00001569  00000-0  11663-3 0  9991,2 53802  53.2180 310.1793 0001163  87.2571 272.8554 15.08846810 95417,6917.86,95.437,540.529,538.92,0.0
53802.0,STARLINK-4726,PAYLOAD,2024-05-27 10:52:08,15.08838603,0.0001137,53.219,307.5041,81.5839,278.5282,0.00013513,1.863e-05,0.0,0 STARLINK-4726,1 53802U 22111AF  24148.45287220  .00001863  00000-0  13513-3 0  9998,2 53802  53.2190 307.5041 0001137  81.5839 278.5282 15.08838603 94690,6917.885,95.438,540.536,538.963,0.0
53802.0,STARLINK-4726,PAYLOAD,2024-05-27 14:02:54,15.08839154,0.0001287,53.2191,306.9081,89.7898,270.3241,0.00011216,1.498e-05,0.0,0 STARLINK-4726,1 53802U 22111AF  24148.58535204  .00001498  00000-0  11216-3 0  9992,2 53802  53.2191 306.9081 0001287  89.7898 270.3241 15.08839154 95529,6917.883,95.438,540.638,538.858,0.0
53802.0,STARLINK-4726,PAYLOAD,2024-05-27 17:13:40,15.08839871,0.0001165,53.2186,306.3122,99.7302,260.3822,0.00010271,1.347e-05,0.0,0 STARLINK-4726,1 53802U 22111AF  24148.71783139  .00001347  00000-0  10271-3 0  9992,2 53802  53.2186 306.3122 0001165  99.7302 260.3822 15.08839871 95541,6917.881,95.438,540.552,538.94,0.0
53802.0,STARLINK-4726,PAYLOAD,2024-05-28 13:53:41,15.08841178,0.0001164,53.2186,302.4462,105.1179,254.9942,-1.8348e-06,-3.17e-06,0.0,0 STARLINK-4726,1 53802U 22111AF  24149.57895287 -.00000317  00000-0 -18348-5 0  9998,2 53802  53.2186 302.4462 0001164 105.1179 254.9942 15.08841178 95677,6917.877,95.437,540.547,538.937,0.0
53802.0,STARLINK-4726,PAYLOAD,2024-05-28 15:29:04,15.08841145,0.0001172,53.2187,302.1488,106.7334,253.3787,-5.1293e-06,-3.69e-06,0.0,0 STARLINK-4726,1 53802U 22111AF  24149.64519265 -.00000369  00000-0 -51293-5 0  9998,2 53802  53.2187 302.1488 0001172 106.7334 253.3787 15.08841145 94877,6917.877,95.437,540.553,538.931,0.0
53802.0,STARLINK-4726,PAYLOAD,2024-05-29 13:44:28,15.08838165,0.0001152,53.2187,297.9871,102.428,257.6841,3.0544e-05,1.98e-06,0.0,0 STARLINK-4726,1 53802U 22111AF  24150.57255358  .00000198  00000-0  30544-4 0  9995,2 53802  53.2187 297.9871 0001152 102.4280 257.6841 15.08838165 95827,6917.886,95.438,540.548,538.954,0.0
53802.0,STARLINK-4726,PAYLOAD,2024-05-29 15:19:51,15.08838988,0.0001152,53.2187,297.6898,99.8982,260.214,3.6021e-05,2.85e-06,0.0,0 STARLINK-4726,1 53802U 22111AF  24150.63879293  .00000285  00000-0  36021-4 0  9995,2 53802  53.2187 297.6898 0001152  99.8982 260.2140 15.08838988 95837,6917.883,95.438,540.545,538.952,0.0
53802.0,STARLINK-4726,PAYLOAD,2024-05-30 13:35:15,15.08838823,0.0001018,53.2179,293.5266,78.3901,281.7205,7.4021e-05,8.9e-06,0.0,0 STARLINK-4726,1 53802U 22111AF  24151.56615411  .00000890  00000-0  74021-4 0  9992,2 53802  53.2179 293.5266 0001018  78.3901 281.7205 15.08838823 95160,6917.884,95.438,540.453,539.045,0.0
53802.0,STARLINK-4726,PAYLOAD,2024-05-30 15:10:38,15.08838846,0.0001017,53.2179,293.2292,80.264,279.8467,7.3255e-05,8.78e-06,0.0,0 STARLINK-4726,1 53802U 22111AF  24151.63239415  .00000878  00000-0  73255-4 0  9990,2 53802  53.2179 293.2292 0001017  80.2640 279.8467 15.08838846 95980,6917.884,95.438,540.452,539.045,0.0
53802.0,STARLINK-4726,PAYLOAD,2024-05-31 13:26:02,15.0884023,0.0001109,53.2182,289.0659,77.7383,282.3733,5.2749e-05,5.52e-06,0.0,0 STARLINK-4726,1 53802U 22111AF  24152.55975518  .00000552  00000-0  52749-4 0  9997,2 53802  53.2182 289.0659 0001109  77.7383 282.3733 15.08840230 96123,6917.88,95.438,540.512,538.977,0.0
53802.0,STARLINK-4726,PAYLOAD,2024-05-31 18:12:12,15.08842936,0.0001551,53.2199,288.1729,77.1243,282.9923,1.9405e-05,2.1e-07,0.0,0 STARLINK-4726,1 53802U 22111AF  24152.75847461  .00000021  00000-0  19405-4 0  9997,2 53802  53.2199 288.1729 0001551  77.1243 282.9923 15.08842936 95344,6917.871,95.437,540.809,538.663,0.0
53802.0,STARLINK-4726,PAYLOAD,2024-06-01 02:09:07,15.0884957,0.0001568,53.2203,286.6873,79.623,280.4939,5.7005e-05,6.2e-06,0.0,0 STARLINK-4726,1 53802U 22111AF  24153.08966822  .00000620  00000-0  57005-4 0  9990,2 53802  53.2203 286.6873 0001568  79.6230 280.4939 15.08849570 95390,6917.851,95.437,540.801,538.631,0.0
53802.0,STARLINK-4726,PAYLOAD,2024-06-01 13:16:50,15.08827429,0.0001543,53.2195,284.6094,83.9993,276.1175,2.5723e-05,1.21e-06,0.0,0 STARLINK-4726,1 53802U 22111AF  24153.55336515  .00000121  00000-0  25723-4 0  9990,2 53802  53.2195 284.6094 0001543  83.9993 276.1175 15.08827429 95461,6917.919,95.438,540.851,538.716,0.0
53802.0,STARLINK-4726,PAYLOAD,2024-06-01 14:52:14,15.08825196,0.0001191,53.2194,284.3119,85.1687,274.9441,7.2384e-06,-1.73e-06,0.0,0 STARLINK-4726,1 53802U 22111AF  24153.61960681 -.00000173  00000-0  72384-5 0  9998,2 53802  53.2194 284.3119 0001191  85.1687 274.9441 15.08825196 96280,6917.926,95.438,540.615,538.967,0.0
53802.0,STARLINK-4726,PAYLOAD,2024-06-01 18:02:59,15.08837411,0.0001186,53.2175,283.7133,83.3626,276.7501,7.672e-06,-1.66e-06,0.0,0 STARLINK-4726,1 53802U 22111AF  24153.75207920 -.00000166  00000-0  76720-5 0  9993,2 53802  53.2175 283.7133 0001186  83.3626 276.7501 15.08837411 95497,6917.888,95.438,540.574,538.933,0.0
53802.0,STARLINK-4726,PAYLOAD,2024-06-02 01:59:54,15.08845328,0.0001246,53.2184,282.2285,84.3027,275.8107,6.644e-05,7.7e-06,0.0,0 STARLINK-4726,1 53802U 22111AF  24154.08327301  .00000770  00000-0  66440-4 0  9993,2 53802  53.2184 282.2285 0001246  84.3027 275.8107 15.08845328 95546,6917.864,95.437,540.591,538.867,0.0
53802.0,STARLINK-4726,PAYLOAD,2024-06-02 08:21:27,15.0883559,0.0001168,53.2179,281.0395,89.3596,270.753,8.2037e-05,1.018e-05,0.0,0 STARLINK-4726,1 53802U 22111AF  24154.34823875  .00001018  00000-0  82037-4 0  9995,2 53802  53.2179 281.0395 0001168  89.3596 270.7530 15.08835590 95586,6917.894,95.438,540.567,538.951,0.0
53802.0,STARLINK-4726,PAYLOAD,2024-06-02 14:43:00,15.08835455,0.0001152,53.2204,279.8479,91.8925,268.2199,6.897e-05,8.1e-06,0.0,0 STARLINK-4726,1 53802U 22111AF  24154.61319990  .00000810  00000-0  68970-4 0  9992,2 53802  53.2204 279.8479 0001152  91.8925 268.2199 15.08835455 96438,6917.894,95.438,540.556,538.962,0.0
